ONEWEB-0226             
1 48793U 21045AC  24082.49918764 -.00000067  00000+0 -21284-3 0  9991
2 48793  87.8978  61.7330 0001739  65.8613 294.2699 13.15547731138098
ONEWEB-0224             
1 48794U 21045AD  24082.46274012  .00000285  00000+0  72244-3 0  9992
2 48794  87.8980  61.7573 0001106  93.8360 266.2897 13.15547847136892
ONEWEB-0233             
1 48795U 21045AE  24082.45878327  .00000161  00000+0  39318-3 0  9999
2 48795  87.8978  61.7704 0001911  76.1243 284.0100 13.15548357136919
ONEWEB-0190             
1 48796U 21045AF  24082.45481303  .00000180  00000+0  44284-3 0  9993
2 48796  87.8980  61.7336 0001224  49.1513 310.9723 13.15549181136984
ONEWEB-0236             
1 48797U 21045AG  24082.47225258  .00000180  00000+0  44443-3 0  9998
2 48797  87.8985  61.7207 0001755  84.7170 275.4161 13.15547871137997
ONEWEB-0248             
1 48798U 21045AH  24082.48492403  .00000145  00000+0  35025-3 0  9995
2 48798  87.8976  61.7165 0001044  86.2375 273.8874 13.15549076137033
ONEWEB-0225             
1 48799U 21045AJ  24082.50710901 -.00000099  00000+0 -29832-3 0  9994
2 48799  87.8978  61.7202 0001485  75.6176 284.5119 13.15548448137042
ONEWEB-0215             
1 48800U 21045AK  24082.47699493  .00000101  00000+0  23506-3 0  9999
2 48800  87.8977  61.7049 0001017  67.7022 292.4216 13.15546575136916
